[{"OBJECT_NAME":"ONEWEB-0660","OBJECT_ID":"2023-029AA","EPOCH":"2026-03-03T15:03:27.988992","MEAN_MOTION":13.14503139,"ECCENTRICITY":0.00014154,"INCLINATION":87.9003,"RA_OF_ASC_NODE":310.7555,"ARG_OF_PERICENTER":89.9334,"MEAN_ANOMALY":270.1958,"EPHEMERIS_TYPE":0,"CLASSIFICATION_TYPE":"U","NORAD_CAT_ID":55820,"ELEMENT_SET_NO":999,"REV_AT_EPOCH":14553,"BSTAR":-0.00029001194,"MEAN_MOTION_DOT":-9.5e-7,"MEAN_MOTION_DDOT":0},{"OBJECT_NAME":"ONEWEB-0661","OBJECT_ID":"2023-029AB","EPOCH":"2026-03-03T15:53:42.040896","MEAN_MOTION":13.14502284,"ECCENTRICITY":0.00013469,"INCLINATION":87.8988,"RA_OF_ASC_NODE":310.8055,"ARG_OF_PERICENTER":86.1413,"MEAN_ANOMALY":273.9871,"EPHEMERIS_TYPE":0,"CLASSIFICATION_TYPE":"U","NORAD_CAT_ID":55821,"ELEMENT_SET_NO":999,"REV_AT_EPOCH":14552,"BSTAR":0.00031204663,"MEAN_MOTION_DOT":1.28e-6,"MEAN_MOTION_DDOT":0},{"OBJECT_NAME":"ONEWEB-0662","OBJECT_ID":"2023-029AC","EPOCH":"2026-03-03T14:54:19.795680","MEAN_MOTION":13.14502019,"ECCENTRICITY":0.00014432,"INCLINATION":87.8992,"RA_OF_ASC_NODE":310.8209,"ARG_OF_PERICENTER":90.1723,"MEAN_ANOMALY":269.9572,"EPHEMERIS_TYPE":0,"CLASSIFICATION_TYPE":"U","NORAD_CAT_ID":55822,"ELEMENT_SET_NO":999,"REV_AT_EPOCH":14556,"BSTAR":-0.00017040329,"MEAN_MOTION_DOT":-5.0e-7,"MEAN_MOTION_DDOT":0},{"OBJECT_NAME":"ONEWEB-0663","OBJECT_ID":"2023-029AD","EPOCH":"2026-03-03T15:22:31.868832","MEAN_MOTION":13.20862133,"ECCENTRICITY":0.00015808,"INCLINATION":87.919,"RA_OF_ASC_NODE":295.5745,"ARG_OF_PERICENTER":100.089,"MEAN_ANOMALY":260.0421,"EPHEMERIS_TYPE":0,"CLASSIFICATION_TYPE":"U","NORAD_CAT_ID":55823,"ELEMENT_SET_NO":999,"REV_AT_EPOCH":14721,"BSTAR":9.105451e-6,"MEAN_MOTION_DOT":1.7e-7,"MEAN_MOTION_DDOT":0},{"OBJECT_NAME":"ONEWEB-0664","OBJECT_ID":"2023-029AE","EPOCH":"2026-03-03T14:04:32.900160","MEAN_MOTION":13.20774582,"ECCENTRICITY":0.00010805,"INCLINATION":87.9175,"RA_OF_ASC_NODE":295.578,"ARG_OF_PERICENTER":83.2583,"MEAN_ANOMALY":276.8674,"EPHEMERIS_TYPE":0,"CLASSIFICATION_TYPE":"U","NORAD_CAT_ID":55824,"ELEMENT_SET_NO":999,"REV_AT_EPOCH":14720,"BSTAR":0.00015997128,"MEAN_MOTION_DOT":7.8e-7,"MEAN_MOTION_DDOT":0},{"OBJECT_NAME":"ONEWEB-0665","OBJECT_ID":"2023-029AF","EPOCH":"2026-03-03T15:49:08.280768","MEAN_MOTION":13.14501529,"ECCENTRICITY":0.00014858,"INCLINATION":87.899,"RA_OF_ASC_NODE":310.7861,"ARG_OF_PERICENTER":91.3561,"MEAN_ANOMALY":268.7739,"EPHEMERIS_TYPE":0,"CLASSIFICATION_TYPE":"U","NORAD_CAT_ID":55825,"ELEMENT_SET_NO":999,"REV_AT_EPOCH":14554,"BSTAR":8.0088424e-5,"MEAN_MOTION_DOT":4.2e-7,"MEAN_MOTION_DDOT":0},{"OBJECT_NAME":"ONEWEB-0666","OBJECT_ID":"2023-029AG","EPOCH":"2026-03-03T13:55:27.819840","MEAN_MOTION":13.2077216,"ECCENTRICITY":0.00021474,"INCLINATION":87.917,"RA_OF_ASC_NODE":295.5694,"ARG_OF_PERICENTER":69.2662,"MEAN_ANOMALY":290.8701,"EPHEMERIS_TYPE":0,"CLASSIFICATION_TYPE":"U","NORAD_CAT_ID":55826,"ELEMENT_SET_NO":999,"REV_AT_EPOCH":14721,"BSTAR":7.3004319e-5,"MEAN_MOTION_DOT":4.3e-7,"MEAN_MOTION_DDOT":0},{"OBJECT_NAME":"ONEWEB-0667","OBJECT_ID":"2023-029AH","EPOCH":"2026-03-03T15:35:27.895488","MEAN_MOTION":13.20771313,"ECCENTRICITY":0.00014734,"INCLINATION":87.9187,"RA_OF_ASC_NODE":295.4959,"ARG_OF_PERICENTER":91.2648,"MEAN_ANOMALY":268.8654,"EPHEMERIS_TYPE":0,"CLASSIFICATION_TYPE":"U","NORAD_CAT_ID":55827,"ELEMENT_SET_NO":999,"REV_AT_EPOCH":14721,"BSTAR":5.8893998e-5,"MEAN_MOTION_DOT":3.7e-7,"MEAN_MOTION_DDOT":0},{"OBJECT_NAME":"ONEWEB-0669","OBJECT_ID":"2023-029AJ","EPOCH":"2026-03-03T15:28:38.706816","MEAN_MOTION":13.20770998,"ECCENTRICITY":0.00013859,"INCLINATION":87.9167,"RA_OF_ASC_NODE":295.5223,"ARG_OF_PERICENTER":60.938,"MEAN_ANOMALY":299.1892,"EPHEMERIS_TYPE":0,"CLASSIFICATION_TYPE":"U","NORAD_CAT_ID":55828,"ELEMENT_SET_NO":999,"REV_AT_EPOCH":14721,"BSTAR":-5.845903e-6,"MEAN_MOTION_DOT":1.1e-7,"MEAN_MOTION_DDOT":0},{"OBJECT_NAME":"ONEWEB-0670","OBJECT_ID":"2023-029AK","EPOCH":"2026-03-03T15:17:09.674592","MEAN_MOTION":13.14501946,"ECCENTRICITY":0.00012109,"INCLINATION":87.8989,"RA_OF_ASC_NODE":310.8096,"ARG_OF_PERICENTER":82.801,"MEAN_ANOMALY":277.3257,"EPHEMERIS_TYPE":0,"CLASSIFICATION_TYPE":"U","NORAD_CAT_ID":55829,"ELEMENT_SET_NO":999,"REV_AT_EPOCH":14556,"BSTAR":-0.00053984152,"MEAN_MOTION_DOT":-1.87e-6,"MEAN_MOTION_DDOT":0},{"OBJECT_NAME":"ONEWEB-0671","OBJECT_ID":"2023-029AL","EPOCH":"2026-03-03T05:21:29.638944","MEAN_MOTION":13.19725605,"ECCENTRICITY":0.00015863,"INCLINATION":87.9237,"RA_OF_ASC_NODE":326.0865,"ARG_OF_PERICENTER":84.0453,"MEAN_ANOMALY":276.086,"EPHEMERIS_TYPE":0,"CLASSIFICATION_TYPE":"U","NORAD_CAT_ID":55830,"ELEMENT_SET_NO":999,"REV_AT_EPOCH":14492,"BSTAR":0.00017990398,"MEAN_MOTION_DOT":8.5e-7,"MEAN_MOTION_DDOT":0},{"OBJECT_NAME":"ONEWEB-0672","OBJECT_ID":"2023-029AM","EPOCH":"2026-03-03T15:21:49.417920","MEAN_MOTION":13.20771892,"ECCENTRICITY":0.00017055,"INCLINATION":87.9182,"RA_OF_ASC_NODE":295.5091,"ARG_OF_PERICENTER":74.4628,"MEAN_ANOMALY":285.6693,"EPHEMERIS_TYPE":0,"CLASSIFICATION_TYPE":"U","NORAD_CAT_ID":55831,"ELEMENT_SET_NO":999,"REV_AT_EPOCH":14721,"BSTAR":-1.0478497e-5,"MEAN_MOTION_DOT":9.0e-8,"MEAN_MOTION_DDOT":0},{"OBJECT_NAME":"ONEWEB-0673","OBJECT_ID":"2023-029AN","EPOCH":"2026-03-03T06:37:40.672416","MEAN_MOTION":13.19726961,"ECCENTRICITY":0.00015904,"INCLINATION":87.924,"RA_OF_ASC_NODE":326.0612,"ARG_OF_PERICENTER":80.1579,"MEAN_ANOMALY":279.9734,"EPHEMERIS_TYPE":0,"CLASSIFICATION_TYPE":"U","NORAD_CAT_ID":55832,"ELEMENT_SET_NO":999,"REV_AT_EPOCH":14493,"BSTAR":0.00010268481,"MEAN_MOTION_DOT":5.4e-7,"MEAN_MOTION_DDOT":0},{"OBJECT_NAME":"ONEWEB-0674","OBJECT_ID":"2023-029AP","EPOCH":"2026-03-03T14:31:29.191872","MEAN_MOTION":13.14501068,"ECCENTRICITY":0.00011769,"INCLINATION":87.8991,"RA_OF_ASC_NODE":310.7932,"ARG_OF_PERICENTER":79.7565,"MEAN_ANOMALY":280.3697,"EPHEMERIS_TYPE":0,"CLASSIFICATION_TYPE":"U","NORAD_CAT_ID":55833,"ELEMENT_SET_NO":999,"REV_AT_EPOCH":14554,"BSTAR":0.00034783365,"MEAN_MOTION_DOT":1.42e-6,"MEAN_MOTION_DDOT":0},{"OBJECT_NAME":"ONEWEB-0675","OBJECT_ID":"2023-029AQ","EPOCH":"2026-03-03T06:59:17.906208","MEAN_MOTION":13.19725933,"ECCENTRICITY":0.00019859,"INCLINATION":87.9232,"RA_OF_ASC_NODE":326.0747,"ARG_OF_PERICENTER":77.4096,"MEAN_ANOMALY":282.7258,"EPHEMERIS_TYPE":0,"CLASSIFICATION_TYPE":"U","NORAD_CAT_ID":55834,"ELEMENT_SET_NO":999,"REV_AT_EPOCH":14495,"BSTAR":0.00035305779,"MEAN_MOTION_DOT":1.54e-6,"MEAN_MOTION_DDOT":0},{"OBJECT_NAME":"ONEWEB-0720","OBJECT_ID":"2023-029AR","EPOCH":"2026-03-03T06:47:56.072832","MEAN_MOTION":13.19725665,"ECCENTRICITY":0.00016709,"INCLINATION":87.9237,"RA_OF_ASC_NODE":326.0763,"ARG_OF_PERICENTER":90.9379,"MEAN_ANOMALY":269.1945,"EPHEMERIS_TYPE":0,"CLASSIFICATION_TYPE":"U","NORAD_CAT_ID":55835,"ELEMENT_SET_NO":999,"REV_AT_EPOCH":14487,"BSTAR":0.00036033089,"MEAN_MOTION_DOT":1.57e-6,"MEAN_MOTION_DDOT":0}]
