ONEWEB-0660             
1 55820U 23029AA  26062.62740728 -.00000095  00000+0 -29001-3 0  9998
2 55820  87.9003 310.7555 0001415  89.9334 270.1958 13.14503139145532
ONEWEB-0661             
1 55821U 23029AB  26062.66229214  .00000128  00000+0  31205-3 0  9999
2 55821  87.8988 310.8055 0001346  86.1413 273.9871 13.14502284145524
ONEWEB-0662             
1 55822U 23029AC  26062.62106245 -.00000050  00000+0 -17040-3 0  9991
2 55822  87.8992 310.8209 0001443  90.1723 269.9572 13.14502019145561
ONEWEB-0663             
1 55823U 23029AD  26062.64064663  .00000017  00000+0  91055-5 0  9992
2 55823  87.9190 295.5745 0001580 100.0890 260.0421 13.20862133147217
ONEWEB-0664             
1 55824U 23029AE  26062.58649190  .00000078  00000+0  15997-3 0  9996
2 55824  87.9175 295.5780 0001080  83.2583 276.8674 13.20774582147200
ONEWEB-0665             
1 55825U 23029AF  26062.65912362  .00000042  00000+0  80088-4 0  9994
2 55825  87.8990 310.7861 0001485  91.3561 268.7739 13.14501529145549
ONEWEB-0666             
1 55826U 23029AG  26062.58018310  .00000043  00000+0  73004-4 0  9998
2 55826  87.9170 295.5694 0002147  69.2662 290.8701 13.20772160147216
ONEWEB-0667             
1 55827U 23029AH  26062.64962842  .00000037  00000+0  58894-4 0  9997
2 55827  87.9187 295.4959 0001473  91.2648 268.8654 13.20771313147219
ONEWEB-0669             
1 55828U 23029AJ  26062.64489244  .00000011  00000+0 -58459-5 0  9999
2 55828  87.9167 295.5223 0001385  60.9380 299.1892 13.20770998147210
ONEWEB-0670             
1 55829U 23029AK  26062.63691753 -.00000187  00000+0 -53984-3 0  9990
2 55829  87.8989 310.8096 0001210  82.8010 277.3257 13.14501946145568
ONEWEB-0671             
1 55830U 23029AL  26062.22325971  .00000085  00000+0  17990-3 0  9995
2 55830  87.9237 326.0865 0001586  84.0453 276.0860 13.19725605144921
ONEWEB-0672             
1 55831U 23029AM  26062.64015530  .00000009  00000+0 -10478-4 0  9991
2 55831  87.9182 295.5091 0001705  74.4628 285.6693 13.20771892147218
ONEWEB-0673             
1 55832U 23029AN  26062.27616519  .00000054  00000+0  10268-3 0  9990
2 55832  87.9240 326.0612 0001590  80.1579 279.9734 13.19726961144937
ONEWEB-0674             
1 55833U 23029AP  26062.60519898  .00000142  00000+0  34783-3 0  9996
2 55833  87.8991 310.7932 0001176  79.7565 280.3697 13.14501068145540
ONEWEB-0675             
1 55834U 23029AQ  26062.29117947  .00000154  00000+0  35306-3 0  9996
2 55834  87.9232 326.0747 0001985  77.4096 282.7258 13.19725933144953
ONEWEB-0720             
1 55835U 23029AR  26062.28328788  .00000157  00000+0  36033-3 0  9994
2 55835  87.9237 326.0763 0001670  90.9379 269.1945 13.19725665144877
